GLOBALSTAR M062         
1 26082U 00008B   26087.83665101 -.00000108  00000+0 -71822-4 0  9993
2 26082  51.9876 338.7008 0007559   6.8262  69.3725 12.43483867532036
GLOBALSTAR M060         
1 26083U 00008C   26087.73153834  .00000108  00000+0  19774-2 0  9992
2 26083  52.0050 339.2776 0003244 358.5569  35.2170 12.17678669187034
GLOBALSTAR M064         
1 26084U 00008D   26087.56712629 -.00000083  00000+0  25477-5 0  9990
2 26084  52.0022 178.0853 0001463 220.8947 139.1776 11.88543028200917
GLOBALSTAR M065         
1 31571U 07020A   26087.73569719 -.00000048  00000+0  31097-3 0  9991
2 31571  51.9887  80.1754 0009593 217.7205 312.8887 12.62023135869333
GLOBALSTAR M069         
1 31573U 07020C   26087.82654056 -.00000057  00000+0  32868-3 0  9999
2 31573  52.0013 119.5775 0001579 344.9929 185.9651 12.23469888868962
GLOBALSTAR M072         
1 31574U 07020D   26087.86889757 -.00000048  00000+0  49893-3 0  9998
2 31574  51.9948 314.0784 0001605 127.5169 318.8661 11.91656711865402
GLOBALSTAR M071         
1 31576U 07020F   26087.69100671 -.00000014  00000+0  76081-3 0  9994
2 31576  52.0046 153.5996 0000405 319.0196 217.7019 12.18267230529619
GLOBALSTAR M067         
1 32263U 07048A   26087.78873231 -.00000079  00000+0  13286-3 0  9996
2 32263  51.9727 283.1532 0000840 179.0200 194.1015 12.40686001844818
GLOBALSTAR M070         
1 32264U 07048B   26087.87129457 -.00000076  00000+0  15679-3 0  9996
2 32264  51.9778 341.2290 0000919  75.1687   3.4619 12.62332066849623
GLOBALSTAR M066         
1 32265U 07048C   26087.80315860 -.00000074  00000+0  17344-3 0  9994
2 32265  51.9587 288.6746 0004107 226.0161 146.9955 12.30387643850331
GLOBALSTAR M068         
1 32266U 07048D   26087.63338691 -.00000065  00000+0  21598-3 0  9999
2 32266  51.9871 155.1539 0001139  67.1667  97.4597 12.62843226853494
GLOBALSTAR M079         
1 37188U 10054A   26087.67356963 -.00000082  00000+0  11924-3 0  9995
2 37188  52.0069 353.7658 0000621 101.9277 266.5841 12.62264329712384
GLOBALSTAR M074         
1 37189U 10054B   26087.87289998 -.00000081  00000+0  12558-3 0  9994
2 37189  52.0046 352.4376 0000521  70.1137   4.1191 12.62266657713015
GLOBALSTAR M076         
1 37190U 10054C   26087.72854905 -.00000090  00000+0  78099-4 0  9999
2 37190  52.0061 353.0726 0000377  93.6580 284.7022 12.62270933712718
GLOBALSTAR M077         
1 37191U 10054D   26087.59328947 -.00000093  00000+0 -27098-3 0  9993
2 37191  52.0011  23.8942 0000657 145.9225  25.2870 11.68156429711721
GLOBALSTAR M075         
1 37192U 10054E   26087.61714859 -.00000096  00000+0  44548-4 0  9990
2 37192  51.9969  35.5081 0000504  74.0383  97.7257 12.62265085711765
GLOBALSTAR M073         
1 37193U 10054F   26087.89952001 -.00000070  00000+0  19035-3 0  9998
2 37193  52.0071 308.6913 0000683 106.4816 268.0388 12.62265835713795
